CCSDS_OMM_VERS = 2.0
CREATION_DATE  = 
ORIGINATOR     = 

OBJECT_NAME    = SL-14 R/B
OBJECT_ID      = 1991-042B
CENTER_NAME    = EARTH
REF_FRAME      = TEME
TIME_SYSTEM    = UTC
MEAN_ELEMENT_THEORY = SGP/SGP4

EPOCH          = 2026-02-16T11:41:13.744896
MEAN_MOTION    = 14.81807860
ECCENTRICITY   = .0015959
INCLINATION    = 82.4898
RA_OF_ASC_NODE = 240.0687
ARG_OF_PERICENTER = 314.6643
MEAN_ANOMALY   = 45.3270

EPHEMERIS_TYPE = 0
CLASSIFICATION_TYPE = U
NORAD_CAT_ID   = 21423
ELEMENT_SET_NO = 999
REV_AT_EPOCH   = 84993
BSTAR          = .51787E-4
MEAN_MOTION_DOT = .433E-5
MEAN_MOTION_DDOT = 0

CCSDS_OMM_VERS = 2.0
CREATION_DATE  = 
ORIGINATOR     = 

OBJECT_NAME    = ERS-1
OBJECT_ID      = 1991-050A
CENTER_NAME    = EARTH
REF_FRAME      = TEME
TIME_SYSTEM    = UTC
MEAN_ELEMENT_THEORY = SGP/SGP4

EPOCH          = 2026-02-16T11:54:45.357984
MEAN_MOTION    = 14.39432197
ECCENTRICITY   = .0030873
INCLINATION    = 98.7893
RA_OF_ASC_NODE = 65.1978
ARG_OF_PERICENTER = 264.9993
MEAN_ANOMALY   = 94.7670

EPHEMERIS_TYPE = 0
CLASSIFICATION_TYPE = U
NORAD_CAT_ID   = 21574
ELEMENT_SET_NO = 999
REV_AT_EPOCH   = 81268
BSTAR          = .1317E-3
MEAN_MOTION_DOT = .365E-5
MEAN_MOTION_DDOT = 0

CCSDS_OMM_VERS = 2.0
CREATION_DATE  = 
ORIGINATOR     = 

OBJECT_NAME    = ARIANE 40 R/B
OBJECT_ID      = 1991-050F
CENTER_NAME    = EARTH
REF_FRAME      = TEME
TIME_SYSTEM    = UTC
MEAN_ELEMENT_THEORY = SGP/SGP4

EPOCH          = 2026-02-16T04:21:32.927040
MEAN_MOTION    = 14.42877547
ECCENTRICITY   = .0004152
INCLINATION    = 98.2059
RA_OF_ASC_NODE = 100.2204
ARG_OF_PERICENTER = 127.9950
MEAN_ANOMALY   = 232.1616

EPHEMERIS_TYPE = 0
CLASSIFICATION_TYPE = U
NORAD_CAT_ID   = 21610
ELEMENT_SET_NO = 999
REV_AT_EPOCH   = 81589
BSTAR          = .1118E-3
MEAN_MOTION_DOT = .332E-5
MEAN_MOTION_DDOT = 0

CCSDS_OMM_VERS = 2.0
CREATION_DATE  = 
ORIGINATOR     = 

OBJECT_NAME    = INTERCOSMOS 25
OBJECT_ID      = 1991-086A
CENTER_NAME    = EARTH
REF_FRAME      = TEME
TIME_SYSTEM    = UTC
MEAN_ELEMENT_THEORY = SGP/SGP4

EPOCH          = 2026-02-16T06:35:22.657056
MEAN_MOTION    = 12.11940229
ECCENTRICITY   = .1486936
INCLINATION    = 82.6086
RA_OF_ASC_NODE = 322.9489
ARG_OF_PERICENTER = 163.0647
MEAN_ANOMALY   = 202.6174

EPHEMERIS_TYPE = 0
CLASSIFICATION_TYPE = U
NORAD_CAT_ID   = 21819
ELEMENT_SET_NO = 999
REV_AT_EPOCH   = 49409
BSTAR          = .23751E-3
MEAN_MOTION_DOT = .1235E-4
MEAN_MOTION_DDOT = 0

CCSDS_OMM_VERS = 2.0
CREATION_DATE  = 
ORIGINATOR     = 

OBJECT_NAME    = SL-8 R/B
OBJECT_ID      = 1992-008B
CENTER_NAME    = EARTH
REF_FRAME      = TEME
TIME_SYSTEM    = UTC
MEAN_ELEMENT_THEORY = SGP/SGP4

EPOCH          = 2026-02-16T05:01:40.822464
MEAN_MOTION    = 13.75970032
ECCENTRICITY   = .0034243
INCLINATION    = 82.9252
RA_OF_ASC_NODE = 283.7594
ARG_OF_PERICENTER = 192.6013
MEAN_ANOMALY   = 287.5793

EPHEMERIS_TYPE = 0
CLASSIFICATION_TYPE = U
NORAD_CAT_ID   = 21876
ELEMENT_SET_NO = 999
REV_AT_EPOCH   = 70646
BSTAR          = .52923E-4
MEAN_MOTION_DOT = .67E-6
MEAN_MOTION_DDOT = 0

CCSDS_OMM_VERS = 2.0
CREATION_DATE  = 
ORIGINATOR     = 

OBJECT_NAME    = SL-8 R/B
OBJECT_ID      = 1992-020B
CENTER_NAME    = EARTH
REF_FRAME      = TEME
TIME_SYSTEM    = UTC
MEAN_ELEMENT_THEORY = SGP/SGP4

EPOCH          = 2026-02-16T10:53:32.335008
MEAN_MOTION    = 13.75546622
ECCENTRICITY   = .0028788
INCLINATION    = 82.9338
RA_OF_ASC_NODE = 169.5233
ARG_OF_PERICENTER = 359.8426
MEAN_ANOMALY   = 68.7107

EPHEMERIS_TYPE = 0
CLASSIFICATION_TYPE = U
NORAD_CAT_ID   = 21938
ELEMENT_SET_NO = 999
REV_AT_EPOCH   = 69821
BSTAR          = .82257E-4
MEAN_MOTION_DOT = .95E-6
MEAN_MOTION_DDOT = 0

CCSDS_OMM_VERS = 2.0
CREATION_DATE  = 
ORIGINATOR     = 

OBJECT_NAME    = USA 81
OBJECT_ID      = 1992-023A
CENTER_NAME    = EARTH
REF_FRAME      = TEME
TIME_SYSTEM    = UTC
MEAN_ELEMENT_THEORY = SGP/SGP4

EPOCH          = 2026-02-16T08:27:04.899456
MEAN_MOTION    = 14.32360169
ECCENTRICITY   = .0002756
INCLINATION    = 85.0117
RA_OF_ASC_NODE = 143.7456
ARG_OF_PERICENTER = 96.8141
MEAN_ANOMALY   = 263.3366

EPHEMERIS_TYPE = 0
CLASSIFICATION_TYPE = U
NORAD_CAT_ID   = 21949
ELEMENT_SET_NO = 999
REV_AT_EPOCH   = 9173
BSTAR          = .67525E-4
MEAN_MOTION_DOT = .202E-5
MEAN_MOTION_DDOT = 0

CCSDS_OMM_VERS = 2.0
CREATION_DATE  = 
ORIGINATOR     = 

OBJECT_NAME    = COSMOS 2219
OBJECT_ID      = 1992-076A
CENTER_NAME    = EARTH
REF_FRAME      = TEME
TIME_SYSTEM    = UTC
MEAN_ELEMENT_THEORY = SGP/SGP4

EPOCH          = 2026-02-16T10:34:59.485728
MEAN_MOTION    = 14.14078171
ECCENTRICITY   = .0019981
INCLINATION    = 71.0581
RA_OF_ASC_NODE = 62.4893
ARG_OF_PERICENTER = 235.7313
MEAN_ANOMALY   = 124.1918

EPHEMERIS_TYPE = 0
CLASSIFICATION_TYPE = U
NORAD_CAT_ID   = 22219
ELEMENT_SET_NO = 999
REV_AT_EPOCH   = 71537
BSTAR          = .12844E-3
MEAN_MOTION_DOT = .198E-5
MEAN_MOTION_DDOT = 0

CCSDS_OMM_VERS = 2.0
CREATION_DATE  = 
ORIGINATOR     = 

OBJECT_NAME    = SL-16 R/B
OBJECT_ID      = 1992-076B
CENTER_NAME    = EARTH
REF_FRAME      = TEME
TIME_SYSTEM    = UTC
MEAN_ELEMENT_THEORY = SGP/SGP4

EPOCH          = 2026-02-16T12:25:10.424928
MEAN_MOTION    = 14.16855038
ECCENTRICITY   = .0011197
INCLINATION    = 70.9974
RA_OF_ASC_NODE = 232.9717
ARG_OF_PERICENTER = 134.9168
MEAN_ANOMALY   = 290.5812

EPHEMERIS_TYPE = 0
CLASSIFICATION_TYPE = U
NORAD_CAT_ID   = 22220
ELEMENT_SET_NO = 999
REV_AT_EPOCH   = 71883
BSTAR          = -.66993E-4
MEAN_MOTION_DOT = -.182E-5
MEAN_MOTION_DDOT = 0

CCSDS_OMM_VERS = 2.0
CREATION_DATE  = 
ORIGINATOR     = 

OBJECT_NAME    = COSMOS 2221
OBJECT_ID      = 1992-080A
CENTER_NAME    = EARTH
REF_FRAME      = TEME
TIME_SYSTEM    = UTC
MEAN_ELEMENT_THEORY = SGP/SGP4

EPOCH          = 2026-02-16T04:03:17.502048
MEAN_MOTION    = 14.96115985
ECCENTRICITY   = .00127936
INCLINATION    = 82.5046
RA_OF_ASC_NODE = 299.6937
ARG_OF_PERICENTER = 265.7407
MEAN_ANOMALY   = 94.2353

EPHEMERIS_TYPE = 0
CLASSIFICATION_TYPE = U
NORAD_CAT_ID   = 22236
ELEMENT_SET_NO = 999
REV_AT_EPOCH   = 77757
BSTAR          = .17791332E-3
MEAN_MOTION_DOT = .2029E-4
MEAN_MOTION_DDOT = 0

CCSDS_OMM_VERS = 2.0
CREATION_DATE  = 
ORIGINATOR     = 

OBJECT_NAME    = SL-16 R/B
OBJECT_ID      = 1992-093B
CENTER_NAME    = EARTH
REF_FRAME      = TEME
TIME_SYSTEM    = UTC
MEAN_ELEMENT_THEORY = SGP/SGP4

EPOCH          = 2026-02-16T09:31:51.262176
MEAN_MOTION    = 14.15443526
ECCENTRICITY   = .0005444
INCLINATION    = 71.0205
RA_OF_ASC_NODE = 48.9646
ARG_OF_PERICENTER = 316.9286
MEAN_ANOMALY   = 43.1410

EPHEMERIS_TYPE = 0
CLASSIFICATION_TYPE = U
NORAD_CAT_ID   = 22285
ELEMENT_SET_NO = 999
REV_AT_EPOCH   = 71014
BSTAR          = .17733E-3
MEAN_MOTION_DOT = .299E-5
MEAN_MOTION_DDOT = 0

CCSDS_OMM_VERS = 2.0
CREATION_DATE  = 
ORIGINATOR     = 

OBJECT_NAME    = COSMOS 2228
OBJECT_ID      = 1992-094A
CENTER_NAME    = EARTH
REF_FRAME      = TEME
TIME_SYSTEM    = UTC
MEAN_ELEMENT_THEORY = SGP/SGP4

EPOCH          = 2026-02-16T11:12:08.305920
MEAN_MOTION    = 14.97087897
ECCENTRICITY   = .0018487
INCLINATION    = 82.5148
RA_OF_ASC_NODE = 257.6342
ARG_OF_PERICENTER = 17.8787
MEAN_ANOMALY   = 342.3081

EPHEMERIS_TYPE = 0
CLASSIFICATION_TYPE = U
NORAD_CAT_ID   = 22286
ELEMENT_SET_NO = 999
REV_AT_EPOCH   = 77288
BSTAR          = .17739E-3
MEAN_MOTION_DOT = .2078E-4
MEAN_MOTION_DDOT = 0

