SL-14 R/B               
1 21423U 91042B   26047.48696464  .00000433  00000+0  51787-4 0  9995
2 21423  82.4898 240.0687 0015959 314.6643  45.3270 14.81807860849933
ERS-1                   
1 21574U 91050A   26047.49635831  .00000365  00000+0  13170-3 0  9990
2 21574  98.7893  65.1978 0030873 264.9993  94.7670 14.39432197812685
ARIANE 40 R/B           
1 21610U 91050F   26047.18163110  .00000332  00000+0  11180-3 0  9996
2 21610  98.2059 100.2204 0004152 127.9950 232.1616 14.42877547815890
INTERCOSMOS 25          
1 21819U 91086A   26047.27456779  .00001235  00000+0  23751-3 0  9992
2 21819  82.6086 322.9489 1486936 163.0647 202.6174 12.11940229494093
SL-8 R/B                
1 21876U 92008B   26047.20950026  .00000067  00000+0  52923-4 0  9993
2 21876  82.9252 283.7594 0034243 192.6013 287.5793 13.75970032706461
SL-8 R/B                
1 21938U 92020B   26047.45384647  .00000095  00000+0  82257-4 0  9997
2 21938  82.9338 169.5233 0028788 359.8426  68.7107 13.75546622698213
USA 81                  
1 21949U 92023A   26047.35214004  .00000202  00000+0  67525-4 0  9991
2 21949  85.0117 143.7456 0002756  96.8141 263.3366 14.32360169 91732
COSMOS 2219             
1 22219U 92076A   26047.44096627  .00000198  00000+0  12844-3 0  9996
2 22219  71.0581  62.4893 0019981 235.7313 124.1918 14.14078171715377
SL-16 R/B               
1 22220U 92076B   26047.51748177 -.00000182  00000+0 -66993-4 0  9990
2 22220  70.9974 232.9717 0011197 134.9168 290.5812 14.16855038718833
COSMOS 2221             
1 22236U 92080A   26047.16895257  .00002029  00000+0  17791-3 0  9996
2 22236  82.5046 299.6937 0012793 265.7407  94.2353 14.96115985777578
SL-16 R/B               
1 22285U 92093B   26047.39712109  .00000299  00000+0  17733-3 0  9996
2 22285  71.0205  48.9646 0005444 316.9286  43.1410 14.15443526710146
COSMOS 2228             
1 22286U 92094A   26047.46676280  .00002078  00000+0  17739-3 0  9998
2 22286  82.5148 257.6342 0018487  17.8787 342.3081 14.97087897772888
